API VERSION: 1.2
API SOURCE: NASA/JPL Horizons API

*******************************************************************************
 Revised: April 12, 2021         Uranus Barycenter                            7
 
 Dynamical point:
 ---------------
 The location of the center-of-mass of the Uranus system. The point about 
 which Uranus and its satellites revolve. See 799 for Uranus center.
*******************************************************************************


*******************************************************************************
Ephemeris / API_USER Sun May 18 03:21:57 2025 Pasadena, USA      / Horizons
*******************************************************************************
Target body name: Uranus Barycenter (7)           {source: DE441}
Center body name: Sun (10)                        {source: DE441}
Center-site name: BODY CENTER
*******************************************************************************
Start time      : A.D. 2011-Aug-09 12:00:00.0000 TDB
Stop  time      : A.D. 2014-Dec-31 12:00:00.0000 TDB
Step-size       : 1440 minutes
*******************************************************************************
Center geodetic : 0.0, 0.0, 0.0                   {E-lon(deg),Lat(deg),Alt(km)}
Center cylindric: 0.0, 0.0, 0.0                   {E-lon(deg),Dxy(km),Dz(km)}
Center radii    : 695700.0, 695700.0, 695700.0 km {Equator_a, b, pole_c}
Output units    : KM-S
Calendar mode   : Mixed Julian/Gregorian
Output type     : GEOMETRIC cartesian states
Output format   : 3 (position, velocity, LT, range, range-rate)
Reference frame : Ecliptic of J2000.0
*******************************************************************************
JDTDB
   X     Y     Z
   VX    VY    VZ
   LT    RG    RR
*******************************************************************************
$$SOE
2456674.000000000 = A.D. 2014-Jan-16 12:00:00.0000 TDB 
 X = 2.936973496899229E+09 Y = 5.953230328703378E+08 Z =-3.582784455913019E+07
 VX=-1.412231317289109E+00 VY= 6.352663306246551E+00 VZ= 4.202094148733648E-02
 LT= 9.996636272578913E+03 RG= 2.996916159888390E+09 RR=-1.225608806700516E-01
2456675.000000000 = A.D. 2014-Jan-17 12:00:00.0000 TDB 
 X = 2.936851426332594E+09 Y = 5.958718911672405E+08 Z =-3.582421329550564E+07
 VX=-1.413476224129161E+00 VY= 6.352389827318627E+00 VZ= 4.203608604963582E-02
 LT= 9.996600942834981E+03 RG= 2.996905568297616E+09 RR=-1.226148193273019E-01
2456676.000000000 = A.D. 2014-Jan-18 12:00:00.0000 TDB 
 X = 2.936729248211076E+09 Y = 5.964207258263359E+08 Z =-3.582058072360569E+07
 VX=-1.414721013699413E+00 VY= 6.352116134400128E+00 VZ= 4.205122557871466E-02
 LT= 9.996565597556611E+03 RG= 2.996894972049735E+09 RR=-1.226686841970698E-01
2456677.000000000 = A.D. 2014-Jan-19 12:00:00.0000 TDB 
 X = 2.936606962544801E+09 Y = 5.969695368290309E+08 Z =-3.581694684388232E+07
 VX=-1.415965686060163E+00 VY= 6.351842225014637E+00 VZ= 4.206635966560190E-02
 LT= 9.996530236764977E+03 RG= 2.996884371151094E+09 RR=-1.227224758616644E-01
2456678.000000000 = A.D. 2014-Jan-20 12:00:00.0000 TDB 
 X = 2.936484569343915E+09 Y = 5.975183241565034E+08 Z =-3.581331165682626E+07
 VX=-1.417210240673176E+00 VY= 6.351568096348895E+00 VZ= 4.208148781891285E-02
 LT= 9.996494860481154E+03 RG= 2.996873765608012E+09 RR=-1.227761943854334E-01
2456679.000000000 = A.D. 2014-Jan-21 12:00:00.0000 TDB 
 X = 2.936362068618640E+09 Y = 5.980670877896762E+08 Z =-3.580967516297469E+07
 VX=-1.418454676273564E+00 VY= 6.351293745321049E+00 VZ= 4.209660945883620E-02
 LT= 9.996459468726287E+03 RG= 2.996863155426827E+09 RR=-1.228298391760361E-01
2456680.000000000 = A.D. 2014-Jan-22 12:00:00.0000 TDB 
 X = 2.936239460379343E+09 Y = 5.986158277091974E+08 Z =-3.580603736291862E+07
 VX=-1.419698990735705E+00 VY= 6.351019168685221E+00 VZ= 4.211172391353157E-02
 LT= 9.996424061521806E+03 RG= 2.996852540613965E+09 RR=-1.228834088326015E-01
2456681.000000000 = A.D. 2014-Jan-23 12:00:00.0000 TDB 
 X = 2.936116744636618E+09 Y = 5.991645438954332E+08 Z =-3.580239825731122E+07
 VX=-1.420943180941262E+00 VY= 6.350744363179974E+00 VZ= 4.212683041931742E-02
 LT= 9.996388638889681E+03 RG= 2.996841921176012E+09 RR=-1.229369009871069E-01
2456682.000000000 = A.D. 2014-Jan-24 12:00:00.0000 TDB 
 X = 2.935993921401376E+09 Y = 5.997132363284744E+08 Z =-3.579875784687549E+07
 VX=-1.422187242663055E+00 VY= 6.350469325726515E+00 VZ= 4.214192812636774E-02
 LT= 9.996353200852724E+03 RG= 2.996831297119806E+09 RR=-1.229903121512353E-01
2456683.000000000 = A.D. 2014-Jan-25 12:00:00.0000 TDB 
 X = 2.935870990684941E+09 Y = 6.002619049881619E+08 Z =-3.579511613241094E+07
 VX=-1.423431170482559E+00 VY= 6.350194053678997E+00 VZ= 4.215701611175859E-02
 LT= 9.996317747434927E+03 RG= 2.996820668452540E+09 RR=-1.230436375856035E-01
2456684.000000000 = A.D. 2014-Jan-26 12:00:00.0000 TDB 
 X = 2.935747952499163E+09 Y = 6.008105498541377E+08 Z =-3.579147311479941E+07
 VX=-1.424674957761153E+00 VY= 6.349918545124043E+00 VZ= 4.217209340145400E-02
 LT= 9.996282278661840E+03 RG= 2.996810035181874E+09 RR=-1.230968712115775E-01
2456685.000000000 = A.D. 2014-Jan-27 12:00:00.0000 TDB 
 X = 2.935624806856512E+09 Y = 6.013591709059223E+08 Z =-3.578782879500782E+07
 VX=-1.425918596685894E+00 VY= 6.349642799219676E+00 VZ= 4.218715900236480E-02
 LT= 9.996246794560961E+03 RG= 2.996799397316051E+09 RR=-1.231500055879235E-01
2456686.000000000 = A.D. 2014-Jan-28 12:00:00.0000 TDB 
 X = 2.935501553770182E+09 Y = 6.019077681230223E+08 Z =-3.578418317408842E+07
 VX=-1.427162078409582E+00 VY= 6.349366816555248E+00 VZ= 4.220221194475382E-02
 LT= 9.996211295162127E+03 RG= 2.996788754864017E+09 RR=-1.232030319752709E-01
2456687.000000000 = A.D. 2014-Jan-29 12:00:00.0000 TDB 
 X = 2.935378193254167E+09 Y = 6.024563414850707E+08 Z =-3.578053625317428E+07
 VX=-1.428405393302113E+00 VY= 6.349090599503436E+00 VZ= 4.221725133421961E-02
 LT= 9.996175780497853E+03 RG= 2.996778107835519E+09 RR=-1.232559405108004E-01
2456688.000000000 = A.D. 2014-Jan-30 12:00:00.0000 TDB 
 X = 2.935254725323313E+09 Y = 6.030048909719925E+08 Z =-3.577688803347030E+07
 VX=-1.429648531325801E+00 VY= 6.348814152523427E+00 VZ= 4.223227641105742E-02
 LT= 9.996140250603630E+03 RG= 2.996767456241198E+09 RR=-1.233087205137399E-01
2456689.000000000 = A.D. 2014-Jan-31 12:00:00.0000 TDB 
 X = 2.935131149993336E+09 Y = 6.035534165641969E+08 Z =-3.577323851623905E+07
 VX=-1.430891482532529E+00 VY= 6.348537482369172E+00 VZ= 4.224728661302191E-02
 LT= 9.996104705518097E+03 RG= 2.996756800092637E+09 RR=-1.233613609288672E-01
2456690.000000000 = A.D. 2014-Feb-01 12:00:00.0000 TDB 
 X = 2.935007467280782E+09 Y = 6.041019182427782E+08 Z =-3.576958770278117E+07
 VX=-1.432134237616796E+00 VY= 6.348260598143235E+00 VZ= 4.226228163063572E-02
 LT= 9.996069145283054E+03 RG= 2.996746139402366E+09 RR=-1.234138508553996E-01
2456691.000000000 = A.D. 2014-Feb-02 12:00:00.0000 TDB 
 X = 2.934883677202957E+09 Y = 6.046503959897171E+08 Z =-3.576593559441099E+07
 VX=-1.433376788551847E+00 VY= 6.347983511240430E+00 VZ= 4.227726146110822E-02
 LT= 9.996033569943360E+03 RG= 2.996735474183835E+09 RR=-1.234661801792780E-01
2456692.000000000 = A.D. 2014-Feb-03 12:00:00.0000 TDB 
 X = 2.934759779777780E+09 Y = 6.051988497880660E+08 Z =-3.576228219242901E+07
 VX=-1.434619129167228E+00 VY= 6.347706234993689E+00 VZ= 4.229222643251340E-02
 LT= 9.995997979546597E+03 RG= 2.996724804451308E+09 RR=-1.235183402077817E-01
2456693.000000000 = A.D. 2014-Feb-04 12:00:00.0000 TDB 
 X = 2.934635775023606E+09 Y = 6.057472796220973E+08 Z =-3.575862749809241E+07
 VX=-1.435861255650870E+00 VY= 6.347428784235184E+00 VZ= 4.230717721414035E-02
 LT= 9.995962374142571E+03 RG= 2.996714130219718E+09 RR=-1.235703242475271E-01
2456694.000000000 = A.D. 2014-Feb-05 12:00:00.0000 TDB 
 X = 2.934511662959005E+09 Y = 6.062956854774083E+08 Z =-3.575497151258671E+07
 VX=-1.437103166901307E+00 VY= 6.347151174682267E+00 VZ= 4.232211479877757E-02
 LT= 9.995926753782684E+03 RG= 2.996703451504471E+09 RR=-1.236221280712577E-01
2456695.000000000 = A.D. 2014-Feb-06 12:00:00.0000 TDB 
 X = 2.934387443602516E+09 Y = 6.068440673409673E+08 Z =-3.575131423699883E+07
 VX=-1.438344864677278E+00 VY= 6.346873422229335E+00 VZ= 4.233704045871756E-02
 LT= 9.995891118519139E+03 RG= 2.996692768321222E+09 RR=-1.236737502056828E-01
2456696.000000000 = A.D. 2014-Feb-07 12:00:00.0000 TDB 
 X = 2.934263116972408E+09 Y = 6.073924252010977E+08 Z =-3.574765567229617E+07
 VX=-1.439586353532445E+00 VY= 6.346595542242104E+00 VZ= 4.235195568222938E-02
 LT= 9.995855468404186E+03 RG= 2.996682080685631E+09 RR=-1.237251920090545E-01
2456697.000000000 = A.D. 2014-Feb-08 12:00:00.0000 TDB 
 X = 2.934138683086441E+09 Y = 6.079407590474044E+08 Z =-3.574399581931064E+07
 VX=-1.440827640553824E+00 VY= 6.346317548927809E+00 VZ= 4.236686209823803E-02
 LT= 9.995819803489261E+03 RG= 2.996671388613122E+09 RR=-1.237764575419408E-01
2456698.000000000 = A.D. 2014-Feb-09 12:00:00.0000 TDB 
 X = 2.934014141961669E+09 Y = 6.084890688706518E+08 Z =-3.574033467873052E+07
 VX=-1.442068734945101E+00 VY= 6.346039454833006E+00 VZ= 4.238176139717664E-02
 LT= 9.995784123824293E+03 RG= 2.996660692118661E+09 RR=-1.238275532610288E-01
2456699.000000000 = A.D. 2014-Feb-10 12:00:00.0000 TDB 
 X = 2.933889493614280E+09 Y = 6.090373546626029E+08 Z =-3.573667225109780E+07
 VX=-1.443309647510053E+00 VY= 6.345761270499907E+00 VZ= 4.239665525564229E-02
 LT= 9.995748429457048E+03 RG= 2.996649991216568E+09 RR=-1.238784875837032E-01
2456700.000000000 = A.D. 2014-Feb-11 12:00:00.0000 TDB 
 X = 2.933764738059476E+09 Y = 6.095856164158384E+08 Z =-3.573300853681287E+07
 VX=-1.444550390097047E+00 VY= 6.345483004292563E+00 VZ= 4.241154527133872E-02
 LT= 9.995712720432652E+03 RG= 2.996639285920372E+09 RR=-1.239292703806522E-01
